{
  "type": "Feature",
  "properties": {
    "name": "City of Valenzuela",
    "admin_level": "city"
  },
  "geometry": {
    "type": "Polygon",
    "coordinates": [[
      [120.9257944, 14.7297406],
      [120.9286907, 14.7252083],
      [120.9298479, 14.7233974],
      [120.9309270, 14.7217088],
      [120.9346319, 14.7167946],
      [120.9384294, 14.7117574],
      [120.9401502, 14.7094749],
      [120.9403446, 14.7092171],
      [120.9414413, 14.7077622],
      [120.9418268, 14.7073096],
      [120.9432439, 14.7056453],
      [120.9476102, 14.7005178],
      [120.9477529, 14.7003502],
      [120.9480092, 14.7000299],
      [120.9512812, 14.6959247],
      [120.9524492, 14.6942028],
      [120.9561885, 14.6962110],
      [120.9561839, 14.6958824],
      [120.9561944, 14.6957378],
      [120.9562426, 14.6955666],
      [120.9563582, 14.6951741],
      [120.9565658, 14.6947143],
      [120.9566436, 14.6946416],
      [120.9567802, 14.6943234],
      [120.9573158, 14.6934617],
      [120.9575593, 14.6932247],
      [120.9577906, 14.6931017],
      [120.9580036, 14.6928455],
      [120.9580920, 14.6925239],
      [120.9581338, 14.6918813],
      [120.9582123, 14.6916699],
      [120.9583013, 14.6915575],
      [120.9585610, 14.6912603],
      [120.9592833, 14.6904974],
      [120.9599149, 14.6890965],
      [120.9599644, 14.6889401],
      [120.9602991, 14.6881548],
      [120.9604096, 14.6880296],
      [120.9604672, 14.6879122],
      [120.9607105, 14.6872181],
      [120.9610180, 14.6864835],
      [120.9615560, 14.6859693],
      [120.9622173, 14.6856167],
      [120.9635116, 14.6840632],
      [120.9635839, 14.6839428],
      [120.9644397, 14.6825185],
      [120.9646600, 14.6817967],
      [120.9646490, 14.6812108],
      [120.9645581, 14.6802502],
      [120.9645363, 14.6793893],
      [120.9650083, 14.6774485],
      [120.9645103, 14.6756924],
      [120.9644995, 14.6753785],
      [120.9646186, 14.6751725],
      [120.9648511, 14.6749959],
      [120.9651837, 14.6755252],
      [120.9656558, 14.6761645],
      [120.9659390, 14.6767042],
      [120.9662309, 14.6771360],
      [120.9664884, 14.6778251],
      [120.9668574, 14.6781987],
      [120.9672866, 14.6785475],
      [120.9677157, 14.6787716],
      [120.9685740, 14.6791702],
      [120.9689774, 14.6792117],
      [120.9693465, 14.6791702],
      [120.9700932, 14.6787550],
      [120.9705653, 14.6784395],
      [120.9712275, 14.6780997],
      [120.9714065, 14.6780078],
      [120.9717498, 14.6779912],
      [120.9721103, 14.6780078],
      [120.9729686, 14.6781904],
      [120.9733806, 14.6782402],
      [120.9738097, 14.6782153],
      [120.9740844, 14.6781323],
      [120.9742732, 14.6779912],
      [120.9742428, 14.6777284],
      [120.9742079, 14.6776429],
      [120.9741804, 14.6775758],
      [120.9739556, 14.6773269],
      [120.9737582, 14.6770529],
      [120.9736724, 14.6767208],
      [120.9737582, 14.6764136],
      [120.9739285, 14.6760226],
      [120.9741874, 14.6756414],
      [120.9744964, 14.6752678],
      [120.9745932, 14.6751828],
      [120.9746954, 14.6750965],
      [120.9748509, 14.6749625],
      [120.9752032, 14.6748053],
      [120.9755156, 14.6746923],
      [120.9757495, 14.6747764],
      [120.9766094, 14.6748884],
      [120.9773772, 14.6750322],
      [120.9775870, 14.6750648],
      [120.9778807, 14.6750836],
      [120.9780038, 14.6750794],
      [120.9781455, 14.6750348],
      [120.9782659, 14.6749751],
      [120.9783791, 14.6749106],
      [120.9785673, 14.6747976],
      [120.9787082, 14.6746256],
      [120.9788231, 14.6744897],
      [120.9789250, 14.6742853],
      [120.9789761, 14.6739271],
      [120.9789719, 14.6735826],
      [120.9788451, 14.6731452],
      [120.9787817, 14.6726983],
      [120.9788909, 14.6724281],
      [120.9791741, 14.6720462],
      [120.9794745, 14.6717639],
      [120.9796464, 14.6715856],
      [120.9798032, 14.6714096],
      [120.9800252, 14.6710897],
      [120.9803500, 14.6709501],
      [120.9805903, 14.6708671],
      [120.9818950, 14.6707126],
      [120.9822722, 14.6706932],
      [120.9824932, 14.6707373],
      [120.9830592, 14.6708791],
      [120.9833824, 14.6708899],
      [120.9839377, 14.6705765],
      [120.9856425, 14.6689412],
      [120.9858548, 14.6688113],
      [120.9861978, 14.6687476],
      [120.9865698, 14.6688141],
      [120.9870960, 14.6690463],
      [120.9877140, 14.6692898],
      [120.9880853, 14.6694491],
      [120.9883868, 14.6695784],
      [120.9886794, 14.6697007],
      [120.9889738, 14.6698859],
      [120.9892335, 14.6700432],
      [120.9896267, 14.6703562],
      [120.9900044, 14.6706484],
      [120.9909782, 14.6715919],
      [120.9911963, 14.6719090],
      [120.9913926, 14.6722309],
      [120.9916068, 14.6725633],
      [120.9918719, 14.6728409],
      [120.9920839, 14.6729057],
      [120.9923042, 14.6730068],
      [120.9926047, 14.6731159],
      [120.9929600, 14.6733061],
      [120.9931506, 14.6735834],
      [120.9932488, 14.6738285],
      [120.9936366, 14.6740804],
      [120.9940658, 14.6743129],
      [120.9946354, 14.6745733],
      [120.9950461, 14.6747585],
      [120.9952289, 14.6748470],
      [120.9953602, 14.6749106],
      [120.9956999, 14.6750414],
      [120.9959125, 14.6751360],
      [120.9961121, 14.6752933],
      [120.9965121, 14.6756887],
      [120.9967175, 14.6759740],
      [120.9969446, 14.6767894],
      [120.9970504, 14.6771692],
      [120.9972195, 14.6783375],
      [120.9973024, 14.6785866],
      [120.9974480, 14.6786298],
      [120.9975297, 14.6787256],
      [120.9976425, 14.6788134],
      [120.9977608, 14.6788185],
      [120.9979281, 14.6787965],
      [120.9980998, 14.6786886],
      [120.9982059, 14.6786382],
      [120.9983144, 14.6786471],
      [120.9983919, 14.6787115],
      [120.9984466, 14.6788132],
      [120.9984635, 14.6789986],
      [120.9984154, 14.6791974],
      [120.9984037, 14.6792458],
      [120.9983102, 14.6796328],
      [120.9981969, 14.6800030],
      [120.9981721, 14.6801371],
      [120.9981856, 14.6802662],
      [120.9984176, 14.6806454],
      [120.9985074, 14.6808190],
      [120.9986006, 14.6809998],
      [120.9987782, 14.6813926],
      [120.9987835, 14.6817491],
      [120.9988189, 14.6820427],
      [120.9988675, 14.6822591],
      [120.9988709, 14.6825294],
      [120.9989073, 14.6826772],
      [120.9989696, 14.6829260],
      [120.9990915, 14.6833114],
      [120.9991712, 14.6836632],
      [120.9993284, 14.6839571],
      [120.9994412, 14.6841972],
      [120.9995155, 14.6843199],
      [120.9997402, 14.6845473],
      [121.0000762, 14.6846688],
      [121.0002092, 14.6847156],
      [121.0002807, 14.6847384],
      [121.0004069, 14.6847485],
      [121.0005391, 14.6847679],
      [121.0007877, 14.6848350],
      [121.0010590, 14.6849129],
      [121.0013694, 14.6851601],
      [121.0016648, 14.6854996],
      [121.0019269, 14.6859859],
      [121.0022493, 14.6865040],
      [121.0026492, 14.6868415],
      [121.0028764, 14.6869794],
      [121.0033528, 14.6871736],
      [121.0037291, 14.6873444],
      [121.0039928, 14.6873244],
      [121.0043295, 14.6872651],
      [121.0045265, 14.6872146],
      [121.0051000, 14.6868981],
      [121.0053954, 14.6867838],
      [121.0062421, 14.6864310],
      [121.0068187, 14.6860739],
      [121.0073791, 14.6855806],
      [121.0077012, 14.6852433],
      [121.0079703, 14.6851233],
      [121.0082314, 14.6850105],
      [121.0083172, 14.6849689],
      [121.0085322, 14.6847560],
      [121.0086312, 14.6845919],
      [121.0088887, 14.6843428],
      [121.0092578, 14.6841104],
      [121.0097456, 14.6837599],
      [121.0101744, 14.6833420],
      [121.0104537, 14.6830960],
      [121.0106622, 14.6828626],
      [121.0107671, 14.6826956],
      [121.0109492, 14.6825588],
      [121.0113972, 14.6823235],
      [121.0116782, 14.6822838],
      [121.0119213, 14.6823280],
      [121.0120616, 14.6824098],
      [121.0122913, 14.6826554],
      [121.0126435, 14.6829775],
      [121.0127896, 14.6831920],
      [121.0128902, 14.6833488],
      [121.0128978, 14.6834404],
      [121.0129191, 14.6837012],
      [121.0129749, 14.6838478],
      [121.0130825, 14.6840276],
      [121.0132604, 14.6842713],
      [121.0133499, 14.6843459],
      [121.0134446, 14.6843734],
      [121.0135413, 14.6843837],
      [121.0137649, 14.6845496],
      [121.0138457, 14.6846433],
      [121.0138837, 14.6847643],
      [121.0138920, 14.6849051],
      [121.0138502, 14.6852255],
      [121.0136937, 14.6855860],
      [121.0136662, 14.6856948],
      [121.0136720, 14.6858001],
      [121.0137666, 14.6861242],
      [121.0138954, 14.6863908],
      [121.0140121, 14.6866228],
      [121.0140248, 14.6867146],
      [121.0140206, 14.6868733],
      [121.0139581, 14.6871756],
      [121.0138573, 14.6876389],
      [121.0137893, 14.6879183],
      [121.0137244, 14.6881749],
      [121.0135273, 14.6884577],
      [121.0133186, 14.6886563],
      [121.0131226, 14.6889552],
      [121.0130261, 14.6892022],
      [121.0130069, 14.6893646],
      [121.0130050, 14.6896697],
      [121.0130161, 14.6897915],
      [121.0130231, 14.6898689],
      [121.0131138, 14.6900539],
      [121.0135493, 14.6906339],
      [121.0140131, 14.6910884],
      [121.0144076, 14.6914332],
      [121.0148096, 14.6917391],
      [121.0151422, 14.6920089],
      [121.0153003, 14.6920974],
      [121.0154963, 14.6920504],
      [121.0157537, 14.6919259],
      [121.0160163, 14.6917832],
      [121.0162902, 14.6917690],
      [121.0168230, 14.6918733],
      [121.0173005, 14.6919932],
      [121.0176877, 14.6920861],
      [121.0179654, 14.6921161],
      [121.0181582, 14.6920903],
      [121.0182518, 14.6920580],
      [121.0184661, 14.6918789],
      [121.0187732, 14.6915653],
      [121.0189001, 14.6914066],
      [121.0189787, 14.6913214],
      [121.0191693, 14.6912245],
      [121.0194441, 14.6911695],
      [121.0197880, 14.6911871],
      [121.0202329, 14.6913134],
      [121.0205064, 14.6913960],
      [121.0207056, 14.6913960],
      [121.0209138, 14.6913626],
      [121.0211024, 14.6913087],
      [121.0212352, 14.6912287],
      [121.0213140, 14.6911504],
      [121.0213377, 14.6910484],
      [121.0213478, 14.6908571],
      [121.0213140, 14.6907334],
      [121.0212697, 14.6906482],
      [121.0212571, 14.6905302],
      [121.0213074, 14.6904568],
      [121.0214365, 14.6904010],
      [121.0216672, 14.6903804],
      [121.0221324, 14.6903954],
      [121.0229565, 14.6905977],
      [121.0235056, 14.6907147],
      [121.0237582, 14.6909064],
      [121.0238923, 14.6911428],
      [121.0239012, 14.6919060],
      [121.0240682, 14.6924433],
      [121.0241839, 14.6926870],
      [121.0242836, 14.6928724],
      [121.0243684, 14.6930177],
      [121.0244686, 14.6931960],
      [121.0245146, 14.6932933],
      [121.0245497, 14.6934197],
      [121.0245644, 14.6935199],
      [121.0245618, 14.6935868],
      [121.0245493, 14.6936733],
      [121.0245263, 14.6937656],
      [121.0245063, 14.6938267],
      [121.0244795, 14.6938891],
      [121.0244374, 14.6939579],
      [121.0243756, 14.6940152],
      [121.0242933, 14.6940845],
      [121.0241953, 14.6941495],
      [121.0240985, 14.6942189],
      [121.0239992, 14.6942717],
      [121.0238965, 14.6943252],
      [121.0238096, 14.6943761],
      [121.0237557, 14.6944219],
      [121.0236885, 14.6944970],
      [121.0236339, 14.6945734],
      [121.0235964, 14.6946339],
      [121.0235661, 14.6947173],
      [121.0235438, 14.6948280],
      [121.0235030, 14.6949763],
      [121.0234641, 14.6950737],
      [121.0234181, 14.6952131],
      [121.0233832, 14.6953194],
      [121.0233417, 14.6954480],
      [121.0233088, 14.6955696],
      [121.0232819, 14.6956536],
      [121.0232595, 14.6957115],
      [121.0232193, 14.6957688],
      [121.0231772, 14.6958108],
      [121.0231009, 14.6958681],
      [121.0229732, 14.6959420],
      [121.0228403, 14.6960094],
      [121.0227317, 14.6960578],
      [121.0225922, 14.6961406],
      [121.0225119, 14.6961978],
      [121.0224159, 14.6962698],
      [121.0223573, 14.6963283],
      [121.0222770, 14.6964124],
      [121.0222198, 14.6964766],
      [121.0221395, 14.6965823],
      [121.0221000, 14.6966453],
      [121.0220388, 14.6967224],
      [121.0219631, 14.6968344],
      [121.0219065, 14.6969299],
      [121.0218605, 14.6969891],
      [121.0218144, 14.6970521],
      [121.0217683, 14.6971036],
      [121.0216795, 14.6972017],
      [121.0215985, 14.6972920],
      [121.0215334, 14.6973621],
      [121.0214340, 14.6974601],
      [121.0213722, 14.6975206],
      [121.0213077, 14.6975702],
      [121.0212640, 14.6976025],
      [121.0212261, 14.6976332],
      [121.0211655, 14.6976861],
      [121.0210892, 14.6977491],
      [121.0209951, 14.6978134],
      [121.0208957, 14.6978611],
      [121.0207727, 14.6979171],
      [121.0206430, 14.6979757],
      [121.0205160, 14.6980196],
      [121.0204206, 14.6980514],
      [121.0203443, 14.6980973],
      [121.0202798, 14.6981558],
      [121.0202416, 14.6982042],
      [121.0201949, 14.6982838],
      [121.0201442, 14.6983862],
      [121.0200508, 14.6985307],
      [121.0199679, 14.6986358],
      [121.0198784, 14.6987631],
      [121.0197961, 14.6988904],
      [121.0197382, 14.6989858],
      [121.0196704, 14.6990902],
      [121.0195921, 14.6991921],
      [121.0195085, 14.6992806],
      [121.0194197, 14.6993709],
      [121.0192927, 14.6994575],
      [121.0191466, 14.6995651],
      [121.0190209, 14.6996618],
      [121.0188854, 14.6997471],
      [121.0187004, 14.6998547],
      [121.0185728, 14.6999203],
      [121.0184405, 14.7000049],
      [121.0183224, 14.7001000],
      [121.0181807, 14.7002360],
      [121.0180910, 14.7003174],
      [121.0180124, 14.7004239],
      [121.0179549, 14.7005441],
      [121.0179141, 14.7006363],
      [121.0178713, 14.7007532],
      [121.0178489, 14.7008540],
      [121.0178264, 14.7009477],
      [121.0177798, 14.7010692],
      [121.0177186, 14.7011888],
      [121.0176311, 14.7013391],
      [121.0175321, 14.7015462],
      [121.0174060, 14.7018209],
      [121.0173586, 14.7019482],
      [121.0173206, 14.7020925],
      [121.0173175, 14.7021902],
      [121.0173277, 14.7022658],
      [121.0173523, 14.7023908],
      [121.0173968, 14.7024994],
      [121.0174702, 14.7026572],
      [121.0175192, 14.7027566],
      [121.0175811, 14.7028717],
      [121.0176377, 14.7029552],
      [121.0177166, 14.7030583],
      [121.0178562, 14.7032227],
      [121.0179631, 14.7033858],
      [121.0161294, 14.7087550],
      [121.0137606, 14.7096057],
      [121.0132604, 14.7097837],
      [121.0130782, 14.7098485],
      [121.0121963, 14.7101623],
      [121.0062987, 14.7122607],
      [121.0017335, 14.7139781],
      [121.0004642, 14.7144576],
      [121.0019280, 14.7226795],
      [121.0023200, 14.7243570],
      [121.0025382, 14.7253873],
      [121.0027353, 14.7264713],
      [121.0028128, 14.7268664],
      [121.0029870, 14.7277062],
      [121.0037827, 14.7317168],
      [121.0046237, 14.7357025],
      [121.0055047, 14.7404015],
      [121.0057514, 14.7415716],
      [121.0061511, 14.7434675],
      [121.0067655, 14.7459224],
      [121.0062852, 14.7462803],
      [121.0060097, 14.7465453],
      [121.0059804, 14.7466452],
      [121.0057893, 14.7467003],
      [121.0055825, 14.7468430],
      [121.0054325, 14.7470441],
      [121.0050110, 14.7472142],
      [121.0048618, 14.7473301],
      [121.0048316, 14.7475209],
      [121.0048494, 14.7476911],
      [121.0048761, 14.7478681],
      [121.0048281, 14.7480314],
      [121.0047623, 14.7481310],
      [121.0045899, 14.7481637],
      [121.0043962, 14.7481860],
      [121.0042931, 14.7481379],
      [121.0041581, 14.7481706],
      [121.0037938, 14.7483407],
      [121.0036829, 14.7484103],
      [121.0035747, 14.7484782],
      [121.0034845, 14.7485349],
      [121.0030296, 14.7487893],
      [121.0028856, 14.7488391],
      [121.0027301, 14.7496271],
      [121.0026769, 14.7498430],
      [121.0026460, 14.7500031],
      [121.0026055, 14.7501974],
      [121.0025017, 14.7502929],
      [121.0024187, 14.7503641],
      [121.0019573, 14.7506111],
      [121.0018309, 14.7506911],
      [121.0017798, 14.7508497],
      [121.0016421, 14.7512776],
      [121.0013739, 14.7519404],
      [121.0012677, 14.7521300],
      [121.0011779, 14.7524458],
      [121.0011166, 14.7527873],
      [121.0010452, 14.7530420],
      [121.0009043, 14.7532078],
      [121.0009133, 14.7534132],
      [121.0004193, 14.7538272],
      [120.9996202, 14.7546043],
      [120.9993975, 14.7548104],
      [120.9990809, 14.7552019],
      [120.9987566, 14.7556033],
      [120.9985204, 14.7557114],
      [120.9982151, 14.7561006],
      [120.9980202, 14.7565526],
      [120.9979593, 14.7567592],
      [120.9978963, 14.7571236],
      [120.9980617, 14.7581692],
      [120.9980639, 14.7581829],
      [120.9980454, 14.7581936],
      [120.9980159, 14.7582094],
      [120.9979668, 14.7582389],
      [120.9979035, 14.7582961],
      [120.9977900, 14.7583971],
      [120.9977827, 14.7583854],
      [120.9968660, 14.7569171],
      [120.9964673, 14.7571177],
      [120.9964402, 14.7571077],
      [120.9964082, 14.7570958],
      [120.9963030, 14.7570761],
      [120.9948430, 14.7568025],
      [120.9948399, 14.7567822],
      [120.9947747, 14.7563539],
      [120.9920138, 14.7567519],
      [120.9920805, 14.7571409],
      [120.9902158, 14.7570377],
      [120.9895771, 14.7577426],
      [120.9891158, 14.7573307],
      [120.9890762, 14.7572954],
      [120.9890091, 14.7572354],
      [120.9889395, 14.7571511],
      [120.9890121, 14.7569620],
      [120.9891029, 14.7567425],
      [120.9892264, 14.7565507],
      [120.9895343, 14.7562288],
      [120.9895477, 14.7560905],
      [120.9895141, 14.7559484],
      [120.9893927, 14.7556464],
      [120.9890702, 14.7552236],
      [120.9889080, 14.7550110],
      [120.9887351, 14.7548321],
      [120.9886395, 14.7545746],
      [120.9887003, 14.7543675],
      [120.9888241, 14.7542293],
      [120.9891189, 14.7539895],
      [120.9891996, 14.7538065],
      [120.9891238, 14.7535728],
      [120.9883010, 14.7523853],
      [120.9881006, 14.7523667],
      [120.9878921, 14.7524509],
      [120.9877338, 14.7524460],
      [120.9875835, 14.7524136],
      [120.9874783, 14.7522763],
      [120.9873917, 14.7521309],
      [120.9873050, 14.7519854],
      [120.9869959, 14.7516436],
      [120.9869257, 14.7515916],
      [120.9868295, 14.7514918],
      [120.9863682, 14.7509584],
      [120.9862436, 14.7509191],
      [120.9859393, 14.7508231],
      [120.9858093, 14.7507821],
      [120.9857922, 14.7506490],
      [120.9859834, 14.7502329],
      [120.9860081, 14.7501575],
      [120.9860800, 14.7499379],
      [120.9861459, 14.7496638],
      [120.9861577, 14.7493882],
      [120.9860816, 14.7492797],
      [120.9858802, 14.7489923],
      [120.9855643, 14.7487197],
      [120.9852314, 14.7484324],
      [120.9852487, 14.7483029],
      [120.9852849, 14.7481749],
      [120.9853426, 14.7479704],
      [120.9853454, 14.7476365],
      [120.9851846, 14.7475855],
      [120.9850400, 14.7474867],
      [120.9849228, 14.7472623],
      [120.9847084, 14.7467565],
      [120.9846278, 14.7464179],
      [120.9846928, 14.7462390],
      [120.9847552, 14.7460613],
      [120.9846635, 14.7458775],
      [120.9845900, 14.7457772],
      [120.9843513, 14.7456645],
      [120.9841069, 14.7455337],
      [120.9840416, 14.7454504],
      [120.9838348, 14.7451926],
      [120.9836548, 14.7449623],
      [120.9835943, 14.7448318],
      [120.9835863, 14.7446979],
      [120.9835747, 14.7443854],
      [120.9835149, 14.7439536],
      [120.9834337, 14.7437377],
      [120.9833764, 14.7435953],
      [120.9833050, 14.7434008],
      [120.9831363, 14.7429701],
      [120.9829191, 14.7427196],
      [120.9826653, 14.7423474],
      [120.9824675, 14.7420446],
      [120.9823802, 14.7418830],
      [120.9823105, 14.7415589],
      [120.9822354, 14.7414015],
      [120.9821035, 14.7411705],
      [120.9818458, 14.7409303],
      [120.9815152, 14.7407873],
      [120.9816197, 14.7376989],
      [120.9810459, 14.7376438],
      [120.9805138, 14.7374257],
      [120.9805631, 14.7369222],
      [120.9810471, 14.7359804],
      [120.9800224, 14.7355108],
      [120.9794058, 14.7352451],
      [120.9790975, 14.7352288],
      [120.9789528, 14.7352404],
      [120.9787153, 14.7352089],
      [120.9783379, 14.7358945],
      [120.9780861, 14.7357699],
      [120.9778053, 14.7356309],
      [120.9809931, 14.7297416],
      [120.9811664, 14.7294319],
      [120.9815709, 14.7286890],
      [120.9820662, 14.7277611],
      [120.9826949, 14.7266052],
      [120.9832024, 14.7256761],
      [120.9829000, 14.7255154],
      [120.9813459, 14.7247459],
      [120.9811062, 14.7246361],
      [120.9807886, 14.7245070],
      [120.9804047, 14.7245403],
      [120.9803523, 14.7245729],
      [120.9798933, 14.7248579],
      [120.9796001, 14.7248549],
      [120.9793090, 14.7247473],
      [120.9792062, 14.7246965],
      [120.9789403, 14.7245118],
      [120.9780868, 14.7242452],
      [120.9777744, 14.7241913],
      [120.9775506, 14.7243677],
      [120.9772963, 14.7245791],
      [120.9771007, 14.7248568],
      [120.9767939, 14.7251598],
      [120.9765246, 14.7252294],
      [120.9764185, 14.7252960],
      [120.9763231, 14.7254072],
      [120.9761621, 14.7253900],
      [120.9759711, 14.7254412],
      [120.9757079, 14.7256328],
      [120.9755775, 14.7257627],
      [120.9754746, 14.7257129],
      [120.9753188, 14.7256044],
      [120.9752984, 14.7254975],
      [120.9753766, 14.7254245],
      [120.9755113, 14.7253566],
      [120.9757046, 14.7252809],
      [120.9758222, 14.7251577],
      [120.9758288, 14.7250502],
      [120.9757667, 14.7249460],
      [120.9755674, 14.7249080],
      [120.9752336, 14.7249386],
      [120.9748341, 14.7249744],
      [120.9746495, 14.7249698],
      [120.9744896, 14.7248937],
      [120.9743298, 14.7246214],
      [120.9741839, 14.7243618],
      [120.9741675, 14.7241248],
      [120.9742206, 14.7239787],
      [120.9741675, 14.7238759],
      [120.9740613, 14.7238996],
      [120.9738103, 14.7239891],
      [120.9736035, 14.7239221],
      [120.9734216, 14.7240693],
      [120.9732244, 14.7241401],
      [120.9728613, 14.7242163],
      [120.9726704, 14.7241847],
      [120.9725535, 14.7240557],
      [120.9725016, 14.7239426],
      [120.9724674, 14.7238227],
      [120.9724350, 14.7236105],
      [120.9723828, 14.7233991],
      [120.9722979, 14.7232143],
      [120.9721401, 14.7231574],
      [120.9719406, 14.7232378],
      [120.9717411, 14.7232840],
      [120.9716694, 14.7232053],
      [120.9715374, 14.7229908],
      [120.9713841, 14.7227815],
      [120.9712637, 14.7226032],
      [120.9709455, 14.7224376],
      [120.9705031, 14.7222099],
      [120.9699383, 14.7219855],
      [120.9696875, 14.7222327],
      [120.9693957, 14.7224448],
      [120.9690403, 14.7229940],
      [120.9689581, 14.7234053],
      [120.9687865, 14.7237042],
      [120.9685757, 14.7237705],
      [120.9683383, 14.7237631],
      [120.9680155, 14.7238272],
      [120.9678352, 14.7240004],
      [120.9666649, 14.7233999],
      [120.9664226, 14.7232680],
      [120.9652907, 14.7226663],
      [120.9653421, 14.7225269],
      [120.9653277, 14.7224169],
      [120.9653205, 14.7223334],
      [120.9653161, 14.7222568],
      [120.9653613, 14.7221097],
      [120.9649573, 14.7219508],
      [120.9647519, 14.7218606],
      [120.9645749, 14.7217775],
      [120.9645359, 14.7216892],
      [120.9643105, 14.7216579],
      [120.9631697, 14.7214998],
      [120.9626954, 14.7198627],
      [120.9626045, 14.7198894],
      [120.9624814, 14.7199227],
      [120.9621609, 14.7200025],
      [120.9612550, 14.7202321],
      [120.9607601, 14.7203508],
      [120.9605978, 14.7203961],
      [120.9601731, 14.7205094],
      [120.9595390, 14.7199238],
      [120.9594315, 14.7200721],
      [120.9592862, 14.7203897],
      [120.9592354, 14.7204017],
      [120.9590698, 14.7204615],
      [120.9589136, 14.7204539],
      [120.9588398, 14.7204702],
      [120.9588088, 14.7205176],
      [120.9587643, 14.7206578],
      [120.9587333, 14.7209064],
      [120.9577324, 14.7219753],
      [120.9573269, 14.7224014],
      [120.9568356, 14.7227292],
      [120.9563766, 14.7234179],
      [120.9561374, 14.7236434],
      [120.9559768, 14.7239316],
      [120.9559672, 14.7240455],
      [120.9560367, 14.7241436],
      [120.9565733, 14.7244622],
      [120.9565757, 14.7245612],
      [120.9564966, 14.7246841],
      [120.9563421, 14.7248079],
      [120.9562014, 14.7249502],
      [120.9559233, 14.7251827],
      [120.9556653, 14.7254106],
      [120.9555168, 14.7255825],
      [120.9554101, 14.7257571],
      [120.9552752, 14.7260868],
      [120.9550905, 14.7265675],
      [120.9545984, 14.7276449],
      [120.9544309, 14.7281932],
      [120.9541106, 14.7287753],
      [120.9535728, 14.7293965],
      [120.9534695, 14.7294285],
      [120.9526340, 14.7290756],
      [120.9524625, 14.7291274],
      [120.9523495, 14.7292802],
      [120.9523437, 14.7294071],
      [120.9524585, 14.7298072],
      [120.9521625, 14.7308533],
      [120.9516529, 14.7320068],
      [120.9515075, 14.7321771],
      [120.9513140, 14.7324488],
      [120.9510558, 14.7326698],
      [120.9504436, 14.7332237],
      [120.9500586, 14.7336171],
      [120.9498389, 14.7338312],
      [120.9495509, 14.7340427],
      [120.9489018, 14.7343529],
      [120.9480501, 14.7343293],
      [120.9472131, 14.7338616],
      [120.9456320, 14.7335754],
      [120.9449073, 14.7336555],
      [120.9442251, 14.7337942],
      [120.9432649, 14.7343181],
      [120.9428085, 14.7347023],
      [120.9425096, 14.7352349],
      [120.9417172, 14.7369464],
      [120.9414571, 14.7374023],
      [120.9405183, 14.7371819],
      [120.9376708, 14.7373881],
      [120.9372076, 14.7373170],
      [120.9367599, 14.7370977],
      [120.9364674, 14.7368345],
      [120.9362689, 14.7365492],
      [120.9361187, 14.7361341],
      [120.9360865, 14.7358747],
      [120.9361055, 14.7355620],
      [120.9360029, 14.7348435],
      [120.9358136, 14.7344089],
      [120.9355661, 14.7340291],
      [120.9352847, 14.7337462],
      [120.9350565, 14.7335726],
      [120.9345981, 14.7333934],
      [120.9342572, 14.7333806],
      [120.9338549, 14.7334377],
      [120.9327337, 14.7337438],
      [120.9315959, 14.7340857],
      [120.9305880, 14.7344999],
      [120.9289411, 14.7352937],
      [120.9266896, 14.7365862],
      [120.9257944, 14.7297406]
    ]]
  }
}
